NORAD_CAT_ID,OBJECT_NAME,OBJECT_TYPE,EPOCH,MEAN_MOTION,ECCENTRICITY,INCLINATION,RA_OF_ASC_NODE,ARG_OF_PERICENTER,MEAN_ANOMALY,BSTAR,MEAN_MOTION_DOT,MEAN_MOTION_DDOT,TLE_LINE0,TLE_LINE1,TLE_LINE2,SEMIMAJOR_AXIS,PERIOD,APOGEE,PERIGEE,DECAYED
51972.0,STARLINK-3671,PAYLOAD,2024-03-12 07:49:02,15.06405898,0.0001419,53.055,56.1473,95.2886,264.8265,0.00031921,4.477e-05,0.0,0 STARLINK-3671,1 51972U 22025S   24072.32572564  .00004477  00000-0  31921-3 0  9995,2 51972  53.0550  56.1473 0001419  95.2886 264.8265 15.06405898112398,6925.33,95.592,548.178,546.213,0.0
51972.0,STARLINK-3671,PAYLOAD,2024-03-13 04:31:03,15.06398074,0.0001567,53.0555,52.2762,99.8572,260.2594,9.721e-05,1.167e-05,0.0,0 STARLINK-3671,1 51972U 22025S   24073.18823789  .00001167  00000-0  97210-4 0  9995,2 51972  53.0555  52.2762 0001567  99.8572 260.2594 15.06398074112524,6925.354,95.592,548.305,546.134,0.0
51972.0,STARLINK-3671,PAYLOAD,2024-03-13 07:42:08,15.06399623,0.0001563,53.0561,51.6773,98.1627,261.954,0.00011974,1.502e-05,0.0,0 STARLINK-3671,1 51972U 22025S   24073.32093058  .00001502  00000-0  11974-3 0  9994,2 51972  53.0561  51.6773 0001563  98.1627 261.9540 15.06399623111445,6925.35,95.592,548.297,546.132,0.0
51972.0,STARLINK-3671,PAYLOAD,2024-03-13 22:02:00,15.06394642,0.0001577,53.055,48.9978,87.546,272.5709,3.6855e-05,2.67e-06,0.0,0 STARLINK-3671,1 51972U 22025S   24073.91805724  .00000267  00000-0  36855-4 0  9993,2 51972  53.0550  48.9978 0001577  87.5460 272.5709 15.06394642111532,6925.365,95.592,548.322,546.138,0.0
51972.0,STARLINK-3671,PAYLOAD,2024-03-14 04:24:09,15.0640115,0.0001341,53.0542,47.8087,91.7094,268.4048,8.8304e-05,1.034e-05,0.0,0 STARLINK-3671,1 51972U 22025S   24074.18344087  .00001034  00000-0  88304-4 0  9992,2 51972  53.0542  47.8087 0001341  91.7094 268.4048 15.06401150111578,6925.345,95.592,548.139,546.281,0.0
51972.0,STARLINK-3671,PAYLOAD,2024-03-14 07:35:13,15.064078,0.000144,53.0546,47.2114,91.4417,268.6737,0.00021526,2.927e-05,0.0,0 STARLINK-3671,1 51972U 22025S   24074.31613322  .00002927  00000-0  21526-3 0  9992,2 51972  53.0546  47.2114 0001440  91.4417 268.6737 15.06407800112692,6925.325,95.592,548.187,546.192,0.0
51972.0,STARLINK-3671,PAYLOAD,2024-03-14 21:55:05,15.06399111,0.0001819,53.0566,44.5264,100.8509,259.2685,0.00012578,1.592e-05,0.0,0 STARLINK-3671,1 51972U 22025S   24074.91325846  .00001592  00000-0  12578-3 0  9993,2 51972  53.0566  44.5264 0001819 100.8509 259.2685 15.06399111111688,6925.351,95.592,548.476,545.957,0.0
51972.0,STARLINK-3671,PAYLOAD,2024-03-15 04:17:14,15.06402851,0.0001786,53.0569,43.3378,95.8793,264.24,0.0002021,2.73e-05,0.0,0 STARLINK-3671,1 51972U 22025S   24075.17864454  .00002730  00000-0  20210-3 0  9992,2 51972  53.0569  43.3378 0001786  95.8793 264.2400 15.06402851112829,6925.34,95.592,548.442,545.968,0.0
51972.0,STARLINK-3671,PAYLOAD,2024-03-16 04:10:20,15.06397322,0.0001515,53.0562,38.8718,102.6551,257.4607,-1.0394e-05,-4.36e-06,0.0,0 STARLINK-3671,1 51972U 22025S   24076.17385036 -.00000436  00000-0 -10394-4 0  9993,2 51972  53.0562  38.8718 0001515 102.6551 257.4607 15.06397322112973,6925.357,95.592,548.271,546.173,0.0
51972.0,STARLINK-3671,PAYLOAD,2024-03-16 07:21:25,15.06398737,0.0001382,53.0551,38.2748,92.3187,267.796,2.2763e-05,5.8e-07,0.0,0 STARLINK-3671,1 51972U 22025S   24076.30654373  .00000058  00000-0  22763-4 0  9992,2 51972  53.0551  38.2748 0001382  92.3187 267.7960 15.06398737111897,6925.352,95.592,548.175,546.26,0.0
51972.0,STARLINK-3671,PAYLOAD,2024-03-17 04:03:25,15.0640555,0.0001486,53.0562,34.401,108.8463,251.2687,0.00012534,1.586e-05,0.0,0 STARLINK-3671,1 51972U 22025S   24077.16904908  .00001586  00000-0  12534-3 0  9990,2 51972  53.0562  34.4010 0001486 108.8463 251.2687 15.06405550113128,6925.332,95.592,548.226,546.167,0.0
51972.0,STARLINK-3671,PAYLOAD,2024-03-17 21:34:22,15.06399001,0.0001489,53.0562,31.1265,102.7327,257.3828,0.00011396,1.416e-05,0.0,0 STARLINK-3671,1 51972U 22025S   24077.89886782  .00001416  00000-0  11396-3 0  9996,2 51972  53.0562  31.1265 0001489 102.7327 257.3828 15.06399001113238,6925.352,95.592,548.248,546.185,0.0
51972.0,STARLINK-3671,PAYLOAD,2024-03-18 05:32:03,15.06402592,0.0001477,53.0565,29.6374,100.0429,260.0727,0.00013747,1.767e-05,0.0,0 STARLINK-3671,1 51972U 22025S   24078.23059971  .00001767  00000-0  13747-3 0  9998,2 51972  53.0565  29.6374 0001477 100.0429 260.0727 15.06402592112187,6925.341,95.592,548.228,546.183,0.0
51972.0,STARLINK-3671,PAYLOAD,2024-03-19 03:49:37,15.06400788,0.0001719,53.0569,25.4681,85.7398,274.3788,9.5993e-05,1.149e-05,0.0,0 STARLINK-3671,1 51972U 22025S   24079.15945893  .00001149  00000-0  95993-4 0  9995,2 51972  53.0569  25.4681 0001719  85.7398 274.3788 15.06400788113427,6925.346,95.592,548.402,546.021,0.0
51972.0,STARLINK-3671,PAYLOAD,2024-03-19 07:00:41,15.06409639,0.0001656,53.0568,24.8702,99.7667,260.3509,0.00017191,2.281e-05,0.0,0 STARLINK-3671,1 51972U 22025S   24079.29214644  .00002281  00000-0  17191-3 0  9994,2 51972  53.0568  24.8702 0001656  99.7667 260.3509 15.06409639113449,6925.319,95.592,548.331,546.037,0.0
51972.0,STARLINK-3671,PAYLOAD,2024-03-20 05:18:13,15.06420443,0.0001872,53.0567,20.6997,106.3394,253.7801,0.00042838,6.108e-05,0.0,0 STARLINK-3671,1 51972U 22025S   24080.22099508  .00006108  00000-0  42838-3 0  9997,2 51972  53.0567  20.6997 0001872 106.3394 253.7801 15.06420443112480,6925.286,95.591,548.447,545.854,0.0
51972.0,STARLINK-3671,PAYLOAD,2024-03-21 02:00:15,15.06396077,0.0001825,53.0575,16.8286,92.709,267.4108,-3.9339e-05,-8.67e-06,0.0,0 STARLINK-3671,1 51972U 22025S   24081.08351568 -.00000867  00000-0 -39339-4 0  9990,2 51972  53.0575  16.8286 0001825  92.7090 267.4108 15.06396077113710,6925.361,95.592,548.489,545.962,0.0
51972.0,STARLINK-3671,PAYLOAD,2024-03-21 13:09:02,15.06405454,0.0001736,53.0573,14.7428,105.991,254.127,0.00024109,3.312e-05,0.0,0 STARLINK-3671,1 51972U 22025S   24081.54794003  .00003312  00000-0  24109-3 0  9990,2 51972  53.0573  14.7428 0001736 105.9910 254.1270 15.06405454112680,6925.332,95.592,548.399,545.995,0.0
51972.0,STARLINK-3671,PAYLOAD,2024-03-21 22:42:15,15.06421199,0.000201,53.0568,12.955,116.6028,243.5167,0.00069337,0.00010067,0.0,0 STARLINK-3671,1 51972U 22025S   24081.94601188  .00010067  00000-0  69337-3 0  9992,2 51972  53.0568  12.9550 0002010 116.6028 243.5167 15.06421199112743,6925.284,95.591,548.541,545.757,0.0
51972.0,STARLINK-3671,PAYLOAD,2024-03-22 01:53:20,15.06419655,0.0001978,53.0568,12.3617,119.3669,240.7518,0.00067348,9.769e-05,0.0,0 STARLINK-3671,1 51972U 22025S   24082.07870450  .00009769  00000-0  67348-3 0  9994,2 51972  53.0568  12.3617 0001978 119.3669 240.7518 15.06419655113861,6925.288,95.591,548.523,545.783,0.0
51972.0,STARLINK-3671,PAYLOAD,2024-03-22 05:04:25,15.06419901,0.0001676,53.056,11.7645,112.5607,247.5559,0.0011481,0.0001687,0.0,0 STARLINK-3671,1 51972U 22025S   24082.21140101  .00016870  00000-0  11481-2 0  9990,2 51972  53.0560  11.7645 0001676 112.5607 247.5559 15.06419901112783,6925.288,95.591,548.313,545.992,0.0
51972.0,STARLINK-3671,PAYLOAD,2024-03-22 22:35:21,15.06400654,0.0001379,53.0561,8.4938,88.8492,271.2655,5.6084e-06,-1.98e-06,0.0,0 STARLINK-3671,1 51972U 22025S   24082.94122188 -.00000198  00000-0  56084-5 0  9993,2 51972  53.0561   8.4938 0001379  88.8492 271.2655 15.06400654112897,6925.347,95.592,548.167,546.257,0.0
51972.0,STARLINK-3671,PAYLOAD,2024-03-23 04:57:30,15.06407628,0.0001888,53.0572,7.2949,118.148,241.97,0.00020693,2.803e-05,0.0,0 STARLINK-3671,1 51972U 22025S   24083.20660494  .00002803  00000-0  20693-3 0  9999,2 51972  53.0572   7.2949 0001888 118.1480 241.9700 15.06407628114038,6925.325,95.592,548.498,545.883,0.0
51972.0,STARLINK-3671,PAYLOAD,2024-03-23 19:17:22,15.06392811,0.0002339,53.0569,4.6149,116.5952,243.5277,4.7891e-05,4.31e-06,0.0,0 STARLINK-3671,1 51972U 22025S   24083.80373368  .00000431  00000-0  47891-4 0  9991,2 51972  53.0569   4.6149 0002339 116.5952 243.5277 15.06392811114129,6925.371,95.593,548.855,545.616,0.0
51972.0,STARLINK-3671,PAYLOAD,2024-03-23 22:28:27,15.06397711,0.000275,53.0556,4.0139,132.4834,227.6388,0.00030545,4.27e-05,0.0,0 STARLINK-3671,1 51972U 22025S   24083.93642584  .00004270  00000-0  30545-3 0  9996,2 51972  53.0556   4.0139 0002750 132.4834 227.6388 15.06397711113041,6925.356,95.592,549.125,545.316,0.0
51972.0,STARLINK-3671,PAYLOAD,2024-03-24 11:12:46,15.06416157,0.0001579,53.0559,1.6408,74.7207,285.3956,0.0014589,0.00021525,0.0,0 STARLINK-3671,1 51972U 22025S   24084.46720419  .00021525  00000-0  14589-2 0  9990,2 51972  53.0559   1.6408 0001579  74.7207 285.3956 15.06416157113123,6925.299,95.591,548.258,546.071,0.0
51972.0,STARLINK-3671,PAYLOAD,2024-03-24 22:21:33,15.06408733,0.0001588,53.0559,359.5492,64.0029,296.1123,0.0012582,0.00018513,0.0,0 STARLINK-3671,1 51972U 22025S   24084.93163331  .00018513  00000-0  12582-2 0  9990,2 51972  53.0559 359.5492 0001588  64.0029 296.1123 15.06408733113199,6925.322,95.592,548.287,546.087,0.0
51972.0,STARLINK-3671,PAYLOAD,2024-03-25 11:05:51,15.06396454,0.0001076,53.056,357.1734,91.2255,268.8858,0.00043387,6.186e-05,0.0,0 STARLINK-3671,1 51972U 22025S   24085.46240735  .00006186  00000-0  43387-3 0  9994,2 51972  53.0560 357.1734 0001076  91.2255 268.8858 15.06396454114377,6925.359,95.592,547.97,546.479,0.0
51972.0,STARLINK-3671,PAYLOAD,2024-03-25 22:14:40,15.06361359,0.0001618,53.0549,355.0893,101.9768,258.1402,0.00094515,0.0001381,0.0,0 STARLINK-3671,1 51972U 22025S   24085.92685346  .00013810  00000-0  94515-3 0  9997,2 51972  53.0549 355.0893 0001618 101.9768 258.1402 15.06361359113346,6925.467,95.595,548.453,546.211,0.0
51972.0,STARLINK-3671,PAYLOAD,2024-03-26 01:25:45,15.06363219,0.0001465,53.0552,354.4949,106.7563,253.3586,0.0017116,0.00025279,0.0,0 STARLINK-3671,1 51972U 22025S   24086.05955061  .00025279  00000-0  17116-2 0  9999,2 51972  53.0552 354.4949 0001465 106.7563 253.3586 15.06363219114462,6925.461,95.594,548.341,546.312,0.0
